{"type": "FeatureCollection", "features": [{"type": "Feature", "properties": {"name": "", "operator": "", "capacity": "2"}, "geometry": {"type": "Point", "coordinates": [-78.8959649, 43.9421839]}}, {"type": "Feature", "properties": {"name": "Tesla Supercharger Toronto", "operator": "Tesla, Inc.", "capacity": "8"}, "geometry": {"type": "Point", "coordinates": [-79.3223719, 43.7402162]}}, {"type": "Feature", "properties": {"name": "", "operator": "", "capacity": ""}, "geometry": {"type": "Point", "coordinates": [-79.5935856, 43.5470477]}}, {"type": "Feature", "properties": {"name": "", "operator": "Windfall Ecology Centre", "capacity": ""}, "geometry": {"type": "Point", "coordinates": [-79.453612, 43.996571]}}, {"type": "Feature", "properties": {"name": "", "operator": "", "capacity": "2"}, "geometry": {"type": "Point", "coordinates": [-79.2291995, 43.7853661]}}, {"type": "Feature", "properties": {"name": "", "operator": "", "capacity": ""}, "geometry": {"type": "Point", "coordinates": [-79.8381454, 43.5062446]}}, {"type": "Feature", "properties": {"name": "", "operator": "", "capacity": "6"}, "geometry": {"type": "Point", "coordinates": [-79.8982528, 43.6517473]}}, {"type": "Feature", "properties": {"name": "", "operator": "", "capacity": "8"}, "geometry": {"type": "Point", "coordinates": [-79.8997335, 43.6520321]}}, {"type": "Feature", "properties": {"name": "Markham - Civic Centre", "operator": "", "capacity": ""}, "geometry": {"type": "Point", "coordinates": [-79.3375168, 43.8570871]}}, {"type": "Feature", "properties": {"name": "FLO", "operator": "FLO", "capacity": "2"}, "geometry": {"type": "Point", "coordinates": [-79.4503601, 43.6394462]}}, {"type": "Feature", "properties": {"name": "FLO - Canadian Tire - Milton", "operator": "FLO", "capacity": ""}, "geometry": {"type": "Point", "coordinates": [-79.8994625, 43.5234988]}}, {"type": "Feature", "properties": {"name": "Region of Peel - 7120 Hurontario St.", "operator": "", "capacity": ""}, "geometry": {"type": "Point", "coordinates": [-79.7096632, 43.6472949]}}, {"type": "Feature", "properties": {"name": "Region of Peel - 10 Peel Centre Drive", "operator": "flo.ca", "capacity": "7"}, "geometry": {"type": "Point", "coordinates": [-79.7228976, 43.7190447]}}, {"type": "Feature", "properties": {"name": "", "operator": "", "capacity": "2"}, "geometry": {"type": "Point", "coordinates": [-79.7195187, 43.7178075]}}, {"type": "Feature", "properties": {"name": "", "operator": "Bramalea City Centre", "capacity": ""}, "geometry": {"type": "Point", "coordinates": [-79.7244365, 43.7148257]}}, {"type": "Feature", "properties": {"name": "Tesla Supercharger", "operator": "Tesla", "capacity": ""}, "geometry": {"type": "Point", "coordinates": [-79.2857203, 43.8675175]}}, {"type": "Feature", "properties": {"name": "", "operator": "", "capacity": ""}, "geometry": {"type": "Point", "coordinates": [-78.8985656, 43.9478277]}}, {"type": "Feature", "properties": {"name": "", "operator": "", "capacity": ""}, "geometry": {"type": "Point", "coordinates": [-78.9442714, 43.8996924]}}, {"type": "Feature", "properties": {"name": "Tesla Supercharger", "operator": "Tesla, Inc.", "capacity": "20"}, "geometry": {"type": "Point", "coordinates": [-79.3534242, 43.8504518]}}, {"type": "Feature", "properties": {"name": "", "operator": "", "capacity": ""}, "geometry": {"type": "Point", "coordinates": [-79.3791457, 43.8474437]}}, {"type": "Feature", "properties": {"name": "", "operator": "university of Toronto", "capacity": "5"}, "geometry": {"type": "Point", "coordinates": [-79.1909885, 43.7869672]}}, {"type": "Feature", "properties": {"name": "", "operator": "", "capacity": ""}, "geometry": {"type": "Point", "coordinates": [-79.5960197, 43.6697604]}}, {"type": "Feature", "properties": {"name": "", "operator": "", "capacity": ""}, "geometry": {"type": "Point", "coordinates": [-79.5960378, 43.6697361]}}, {"type": "Feature", "properties": {"name": "", "operator": "", "capacity": ""}, "geometry": {"type": "Point", "coordinates": [-79.5960566, 43.6697152]}}, {"type": "Feature", "properties": {"name": "", "operator": "", "capacity": ""}, "geometry": {"type": "Point", "coordinates": [-79.5960774, 43.6696958]}}, {"type": "Feature", "properties": {"name": "", "operator": "", "capacity": ""}, "geometry": {"type": "Point", "coordinates": [-79.5960941, 43.669676]}}, {"type": "Feature", "properties": {"name": "FLO", "operator": "FLO", "capacity": "8"}, "geometry": {"type": "Point", "coordinates": [-79.5500768, 43.6297644]}}, {"type": "Feature", "properties": {"name": "Tesla Supercharger", "operator": "Tesla", "capacity": ""}, "geometry": {"type": "Point", "coordinates": [-79.3444101, 43.775981]}}, {"type": "Feature", "properties": {"name": "ChargePoint", "operator": "ChargePoint", "capacity": "2"}, "geometry": {"type": "Point", "coordinates": [-79.3841227, 43.6506957]}}, {"type": "Feature", "properties": {"name": "", "operator": "", "capacity": "2"}, "geometry": {"type": "Point", "coordinates": [-79.5103088, 43.8550869]}}, {"type": "Feature", "properties": {"name": "FLO", "operator": "FLO", "capacity": "8"}, "geometry": {"type": "Point", "coordinates": [-79.5069933, 43.8563934]}}, {"type": "Feature", "properties": {"name": "", "operator": "", "capacity": ""}, "geometry": {"type": "Point", "coordinates": [-79.5239395, 43.83408]}}, {"type": "Feature", "properties": {"name": "Tesla Supercharger", "operator": "Tesla", "capacity": ""}, "geometry": {"type": "Point", "coordinates": [-79.5386082, 43.8272722]}}, {"type": "Feature", "properties": {"name": "", "operator": "", "capacity": ""}, "geometry": {"type": "Point", "coordinates": [-79.6919773, 43.6159212]}}, {"type": "Feature", "properties": {"name": "", "operator": "", "capacity": ""}, "geometry": {"type": "Point", "coordinates": [-79.6925815, 43.6153744]}}, {"type": "Feature", "properties": {"name": "Hypercharge", "operator": "Hypercharge", "capacity": "10"}, "geometry": {"type": "Point", "coordinates": [-79.6171474, 43.6911746]}}, {"type": "Feature", "properties": {"name": "", "operator": "", "capacity": ""}, "geometry": {"type": "Point", "coordinates": [-79.559868, 43.6269722]}}, {"type": "Feature", "properties": {"name": "", "operator": "", "capacity": "2"}, "geometry": {"type": "Point", "coordinates": [-79.614601, 43.68951]}}, {"type": "Feature", "properties": {"name": "Tesla Supercharger", "operator": "Tesla", "capacity": ""}, "geometry": {"type": "Point", "coordinates": [-79.5541605, 43.6140178]}}, {"type": "Feature", "properties": {"name": "Tesla Supercharger", "operator": "Tesla", "capacity": "16"}, "geometry": {"type": "Point", "coordinates": [-79.7859045, 43.5981735]}}, {"type": "Feature", "properties": {"name": "Wheelchair Charger", "operator": "University of Toronto Scarborough", "capacity": "2"}, "geometry": {"type": "Point", "coordinates": [-79.1881065, 43.7828854]}}, {"type": "Feature", "properties": {"name": "FLO", "operator": "FLO", "capacity": ""}, "geometry": {"type": "Point", "coordinates": [-79.5603105, 43.6127769]}}, {"type": "Feature", "properties": {"name": "FLO", "operator": "FLO", "capacity": ""}, "geometry": {"type": "Point", "coordinates": [-79.4310876, 43.8425024]}}, {"type": "Feature", "properties": {"name": "", "operator": "", "capacity": ""}, "geometry": {"type": "Point", "coordinates": [-79.7527331, 43.891009]}}, {"type": "Feature", "properties": {"name": "", "operator": "", "capacity": ""}, "geometry": {"type": "Point", "coordinates": [-79.6783438, 43.4578901]}}, {"type": "Feature", "properties": {"name": "Tesla Destination Charger", "operator": "Tesla", "capacity": ""}, "geometry": {"type": "Point", "coordinates": [-79.4042682, 43.6540359]}}, {"type": "Feature", "properties": {"name": "", "operator": "", "capacity": ""}, "geometry": {"type": "Point", "coordinates": [-79.5305488, 43.7873664]}}, {"type": "Feature", "properties": {"name": "", "operator": "Porsche", "capacity": ""}, "geometry": {"type": "Point", "coordinates": [-79.2859742, 43.8717395]}}, {"type": "Feature", "properties": {"name": "ChargePoint", "operator": "ChargePoint", "capacity": "2"}, "geometry": {"type": "Point", "coordinates": [-79.8002479, 43.7245395]}}, {"type": "Feature", "properties": {"name": "FLO", "operator": "FLO", "capacity": ""}, "geometry": {"type": "Point", "coordinates": [-79.3039557, 43.857776]}}, {"type": "Feature", "properties": {"name": "", "operator": "Ivy", "capacity": "8"}, "geometry": {"type": "Point", "coordinates": [-79.5587095, 43.8947154]}}, {"type": "Feature", "properties": {"name": "FLO", "operator": "FLO", "capacity": "2"}, "geometry": {"type": "Point", "coordinates": [-79.8671979, 43.5275328]}}, {"type": "Feature", "properties": {"name": "Ivy", "operator": "", "capacity": ""}, "geometry": {"type": "Point", "coordinates": [-79.5970389, 43.7226204]}}, {"type": "Feature", "properties": {"name": "FLO", "operator": "FLO", "capacity": "21"}, "geometry": {"type": "Point", "coordinates": [-79.1789204, 43.8216624]}}, {"type": "Feature", "properties": {"name": "", "operator": "EV-olution", "capacity": ""}, "geometry": {"type": "Point", "coordinates": [-79.5338687, 43.8246348]}}, {"type": "Feature", "properties": {"name": "FLO", "operator": "FLO", "capacity": "2"}, "geometry": {"type": "Point", "coordinates": [-79.3110742, 43.6676542]}}, {"type": "Feature", "properties": {"name": "", "operator": "SWTCH", "capacity": "6"}, "geometry": {"type": "Point", "coordinates": [-79.2962652, 43.6714522]}}, {"type": "Feature", "properties": {"name": "ChargePoint", "operator": "ChargePoint", "capacity": "4"}, "geometry": {"type": "Point", "coordinates": [-79.7001373, 43.611657]}}, {"type": "Feature", "properties": {"name": "Park and Charge", "operator": "", "capacity": ""}, "geometry": {"type": "Point", "coordinates": [-79.7351266, 43.6635866]}}, {"type": "Feature", "properties": {"name": "Tesla Destination Charger", "operator": "", "capacity": ""}, "geometry": {"type": "Point", "coordinates": [-79.5226111, 43.6455433]}}, {"type": "Feature", "properties": {"name": "FLO", "operator": "FLO", "capacity": ""}, "geometry": {"type": "Point", "coordinates": [-79.5372923, 43.6385007]}}, {"type": "Feature", "properties": {"name": "", "operator": "", "capacity": "2"}, "geometry": {"type": "Point", "coordinates": [-79.3386433, 43.7175628]}}, {"type": "Feature", "properties": {"name": "", "operator": "Toronto Metropolitan University", "capacity": "6"}, "geometry": {"type": "Point", "coordinates": [-79.377584, 43.6567477]}}, {"type": "Feature", "properties": {"name": "", "operator": "Ivy", "capacity": ""}, "geometry": {"type": "Point", "coordinates": [-79.4379752, 44.043701]}}, {"type": "Feature", "properties": {"name": "", "operator": "", "capacity": ""}, "geometry": {"type": "Point", "coordinates": [-79.7069234, 43.4983298]}}, {"type": "Feature", "properties": {"name": "ChargePoint", "operator": "ChargePoint", "capacity": "8"}, "geometry": {"type": "Point", "coordinates": [-79.2597584, 43.777252]}}, {"type": "Feature", "properties": {"name": "Tesla Supercharger", "operator": "Tesla", "capacity": "16"}, "geometry": {"type": "Point", "coordinates": [-79.5332761, 43.850346]}}, {"type": "Feature", "properties": {"name": "FLO", "operator": "FLO", "capacity": "2"}, "geometry": {"type": "Point", "coordinates": [-79.4283737, 43.6388075]}}, {"type": "Feature", "properties": {"name": "AmbuEnergy", "operator": "", "capacity": "12"}, "geometry": {"type": "Point", "coordinates": [-79.3551751, 43.8428726]}}, {"type": "Feature", "properties": {"name": "", "operator": "", "capacity": ""}, "geometry": {"type": "Point", "coordinates": [-79.608092, 43.7298649]}}, {"type": "Feature", "properties": {"name": "", "operator": "Scotiabank", "capacity": "1"}, "geometry": {"type": "Point", "coordinates": [-79.5066455, 43.9338786]}}, {"type": "Feature", "properties": {"name": "Charging Station", "operator": "ChargePoint", "capacity": "2"}, "geometry": {"type": "Point", "coordinates": [-79.5178166, 43.9314566]}}, {"type": "Feature", "properties": {"name": "", "operator": "Township_of_King", "capacity": "5"}, "geometry": {"type": "Point", "coordinates": [-79.5402646, 43.9241157]}}, {"type": "Feature", "properties": {"name": "", "operator": "CharggePoint", "capacity": "2"}, "geometry": {"type": "Point", "coordinates": [-79.5508069, 43.9238132]}}, {"type": "Feature", "properties": {"name": "", "operator": "Rio-Can", "capacity": "8"}, "geometry": {"type": "Point", "coordinates": [-79.5440001, 43.7859008]}}, {"type": "Feature", "properties": {"name": "", "operator": "Ivy", "capacity": ""}, "geometry": {"type": "Point", "coordinates": [-79.7598137, 43.5844613]}}, {"type": "Feature", "properties": {"name": "", "operator": "Fiesta Farms", "capacity": "1"}, "geometry": {"type": "Point", "coordinates": [-79.4206709, 43.6690296]}}, {"type": "Feature", "properties": {"name": "", "operator": "", "capacity": ""}, "geometry": {"type": "Point", "coordinates": [-79.2278708, 43.7581735]}}, {"type": "Feature", "properties": {"name": "", "operator": "Rio-Can", "capacity": "4"}, "geometry": {"type": "Point", "coordinates": [-79.3949063, 43.9007381]}}, {"type": "Feature", "properties": {"name": "FLO", "operator": "FLO", "capacity": "2"}, "geometry": {"type": "Point", "coordinates": [-79.3073493, 43.6684906]}}, {"type": "Feature", "properties": {"name": "FLO", "operator": "FLO", "capacity": "2"}, "geometry": {"type": "Point", "coordinates": [-79.3084502, 43.6682141]}}, {"type": "Feature", "properties": {"name": "", "operator": "", "capacity": ""}, "geometry": {"type": "Point", "coordinates": [-79.5429889, 43.6274076]}}, {"type": "Feature", "properties": {"name": "", "operator": "", "capacity": "2"}, "geometry": {"type": "Point", "coordinates": [-79.5000613, 43.774686]}}, {"type": "Feature", "properties": {"name": "", "operator": "", "capacity": "2"}, "geometry": {"type": "Point", "coordinates": [-79.5001284, 43.7748419]}}, {"type": "Feature", "properties": {"name": "", "operator": "", "capacity": "1"}, "geometry": {"type": "Point", "coordinates": [-79.5024203, 43.7702957]}}, {"type": "Feature", "properties": {"name": "", "operator": "", "capacity": "1"}, "geometry": {"type": "Point", "coordinates": [-79.5032375, 43.778274]}}, {"type": "Feature", "properties": {"name": "", "operator": "", "capacity": "1"}, "geometry": {"type": "Point", "coordinates": [-79.5032992, 43.77826]}}, {"type": "Feature", "properties": {"name": "", "operator": "", "capacity": "1"}, "geometry": {"type": "Point", "coordinates": [-79.5032194, 43.7782331]}}, {"type": "Feature", "properties": {"name": "", "operator": "", "capacity": "1"}, "geometry": {"type": "Point", "coordinates": [-79.5032811, 43.7782191]}}, {"type": "Feature", "properties": {"name": "", "operator": "Jule", "capacity": "3"}, "geometry": {"type": "Point", "coordinates": [-79.3545473, 43.8486984]}}, {"type": "Feature", "properties": {"name": "FLO", "operator": "FLO", "capacity": "2"}, "geometry": {"type": "Point", "coordinates": [-79.4520655, 43.6544896]}}, {"type": "Feature", "properties": {"name": "Tesla Supercharger", "operator": "Tesla, Inc.", "capacity": ""}, "geometry": {"type": "Point", "coordinates": [-79.5763218, 43.5904171]}}, {"type": "Feature", "properties": {"name": "FLO", "operator": "FLO", "capacity": ""}, "geometry": {"type": "Point", "coordinates": [-79.5448794, 43.6170975]}}, {"type": "Feature", "properties": {"name": "", "operator": "", "capacity": ""}, "geometry": {"type": "Point", "coordinates": [-79.5427467, 43.627881]}}, {"type": "Feature", "properties": {"name": "", "operator": "", "capacity": ""}, "geometry": {"type": "Point", "coordinates": [-79.6135303, 43.6820669]}}, {"type": "Feature", "properties": {"name": "FLO", "operator": "FLO", "capacity": "2"}, "geometry": {"type": "Point", "coordinates": [-79.4522568, 43.6552216]}}, {"type": "Feature", "properties": {"name": "", "operator": "Toronto Parking Authority", "capacity": "2"}, "geometry": {"type": "Point", "coordinates": [-79.4248313, 43.6792815]}}, {"type": "Feature", "properties": {"name": "", "operator": "Swtch Energy", "capacity": "4"}, "geometry": {"type": "Point", "coordinates": [-79.4173034, 43.6393872]}}, {"type": "Feature", "properties": {"name": "", "operator": "Petro-Canada", "capacity": ""}, "geometry": {"type": "Point", "coordinates": [-79.5467699, 43.7885588]}}, {"type": "Feature", "properties": {"name": "Park + Charge", "operator": "", "capacity": "4"}, "geometry": {"type": "Point", "coordinates": [-79.3873807, 43.7692967]}}, {"type": "Feature", "properties": {"name": "ChargePoint", "operator": "ChargePoint", "capacity": "4"}, "geometry": {"type": "Point", "coordinates": [-79.6923561, 43.6105339]}}, {"type": "Feature", "properties": {"name": "", "operator": "", "capacity": ""}, "geometry": {"type": "Point", "coordinates": [-79.5472796, 43.6169613]}}, {"type": "Feature", "properties": {"name": "", "operator": "", "capacity": ""}, "geometry": {"type": "Point", "coordinates": [-79.399118, 43.641578]}}, {"type": "Feature", "properties": {"name": "Park + Charge", "operator": "", "capacity": "8"}, "geometry": {"type": "Point", "coordinates": [-79.5592078, 43.6443306]}}, {"type": "Feature", "properties": {"name": "", "operator": "", "capacity": ""}, "geometry": {"type": "Point", "coordinates": [-79.3602997, 43.8509674]}}, {"type": "Feature", "properties": {"name": "", "operator": "", "capacity": ""}, "geometry": {"type": "Point", "coordinates": [-79.6654408, 43.448422]}}, {"type": "Feature", "properties": {"name": "", "operator": "", "capacity": ""}, "geometry": {"type": "Point", "coordinates": [-79.653473, 43.569566]}}, {"type": "Feature", "properties": {"name": "FLO", "operator": "FLO", "capacity": ""}, "geometry": {"type": "Point", "coordinates": [-79.4091401, 43.6648883]}}, {"type": "Feature", "properties": {"name": "", "operator": "Ivy Charging Network", "capacity": ""}, "geometry": {"type": "Point", "coordinates": [-79.7161783, 43.4888111]}}, {"type": "Feature", "properties": {"name": "", "operator": "Heartland Town Centre", "capacity": "4"}, "geometry": {"type": "Point", "coordinates": [-79.6880412, 43.6114776]}}, {"type": "Feature", "properties": {"name": "Tesla Supercharger", "operator": "Tesla", "capacity": ""}, "geometry": {"type": "Point", "coordinates": [-79.7628404, 43.7291879]}}, {"type": "Feature", "properties": {"name": "", "operator": "", "capacity": ""}, "geometry": {"type": "Point", "coordinates": [-79.6907289, 43.6088129]}}, {"type": "Feature", "properties": {"name": "FLO", "operator": "FLO", "capacity": "4"}, "geometry": {"type": "Point", "coordinates": [-78.9007777, 43.8667261]}}, {"type": "Feature", "properties": {"name": "Tesla Supercharger", "operator": "Tesla", "capacity": "20"}, "geometry": {"type": "Point", "coordinates": [-79.6318494, 43.5082054]}}, {"type": "Feature", "properties": {"name": "", "operator": "", "capacity": ""}, "geometry": {"type": "Point", "coordinates": [-79.3354653, 43.6798011]}}, {"type": "Feature", "properties": {"name": "Park + Charge", "operator": "", "capacity": "4"}, "geometry": {"type": "Point", "coordinates": [-79.6899871, 43.614356]}}, {"type": "Feature", "properties": {"name": "", "operator": "", "capacity": ""}, "geometry": {"type": "Point", "coordinates": [-79.6551701, 43.9081938]}}, {"type": "Feature", "properties": {"name": "", "operator": "", "capacity": ""}, "geometry": {"type": "Point", "coordinates": [-79.4014496, 43.7089052]}}, {"type": "Feature", "properties": {"name": "", "operator": "", "capacity": ""}, "geometry": {"type": "Point", "coordinates": [-79.5346546, 43.8354234]}}, {"type": "Feature", "properties": {"name": "FLO", "operator": "FLO", "capacity": ""}, "geometry": {"type": "Point", "coordinates": [-79.4513272, 43.65197]}}, {"type": "Feature", "properties": {"name": "FLO", "operator": "FLO", "capacity": "6"}, "geometry": {"type": "Point", "coordinates": [-79.2943377, 43.671726]}}, {"type": "Feature", "properties": {"name": "", "operator": "", "capacity": ""}, "geometry": {"type": "Point", "coordinates": [-79.372293, 43.6634237]}}, {"type": "Feature", "properties": {"name": "", "operator": "", "capacity": ""}, "geometry": {"type": "Point", "coordinates": [-79.3716767, 43.6635585]}}, {"type": "Feature", "properties": {"name": "Petro-Canada EV Fast Charge", "operator": "", "capacity": ""}, "geometry": {"type": "Point", "coordinates": [-79.6067571, 43.6865698]}}, {"type": "Feature", "properties": {"name": "", "operator": "", "capacity": ""}, "geometry": {"type": "Point", "coordinates": [-79.3405094, 43.6618995]}}, {"type": "Feature", "properties": {"name": "Jolt", "operator": "Jolt", "capacity": ""}, "geometry": {"type": "Point", "coordinates": [-79.5520449, 43.6200883]}}, {"type": "Feature", "properties": {"name": "", "operator": "", "capacity": "3"}, "geometry": {"type": "Point", "coordinates": [-79.7597635, 43.687346]}}, {"type": "Feature", "properties": {"name": "FLO", "operator": "FLO", "capacity": "2"}, "geometry": {"type": "Point", "coordinates": [-79.8096829, 43.7162707]}}, {"type": "Feature", "properties": {"name": "Park + Charge", "operator": "Park + Charge", "capacity": "8"}, "geometry": {"type": "Point", "coordinates": [-78.8789089, 43.8850276]}}, {"type": "Feature", "properties": {"name": "", "operator": "", "capacity": ""}, "geometry": {"type": "Point", "coordinates": [-79.3181082, 43.6660469]}}, {"type": "Feature", "properties": {"name": "", "operator": "Jule", "capacity": ""}, "geometry": {"type": "Point", "coordinates": [-79.7175414, 43.4878747]}}, {"type": "Feature", "properties": {"name": "ChargePoint", "operator": "ChargePoint", "capacity": ""}, "geometry": {"type": "Point", "coordinates": [-79.714319, 43.5826428]}}, {"type": "Feature", "properties": {"name": "ChargePoint", "operator": "ChargePoint", "capacity": ""}, "geometry": {"type": "Point", "coordinates": [-79.7142752, 43.582607]}}, {"type": "Feature", "properties": {"name": "Electrify Canada", "operator": "Electrify Canada", "capacity": ""}, "geometry": {"type": "Point", "coordinates": [-79.8275678, 43.5764312]}}, {"type": "Feature", "properties": {"name": "", "operator": "", "capacity": ""}, "geometry": {"type": "Point", "coordinates": [-79.7167893, 43.7044379]}}, {"type": "Feature", "properties": {"name": "", "operator": "", "capacity": ""}, "geometry": {"type": "Point", "coordinates": [-79.7167617, 43.7044272]}}, {"type": "Feature", "properties": {"name": "", "operator": "", "capacity": ""}, "geometry": {"type": "Point", "coordinates": [-79.4280407, 43.6419048]}}, {"type": "Feature", "properties": {"name": "", "operator": "", "capacity": ""}, "geometry": {"type": "Point", "coordinates": [-79.3873305, 43.640102]}}, {"type": "Feature", "properties": {"name": "Tesla Supercharger", "operator": "Tesla", "capacity": ""}, "geometry": {"type": "Point", "coordinates": [-79.698864, 43.741418]}}, {"type": "Feature", "properties": {"name": "Tesla Supercharger", "operator": "Tesla", "capacity": ""}, "geometry": {"type": "Point", "coordinates": [-79.147612, 43.798911]}}, {"type": "Feature", "properties": {"name": "Tesla Supercharger", "operator": "Tesla", "capacity": ""}, "geometry": {"type": "Point", "coordinates": [-79.3461238, 43.7359611]}}, {"type": "Feature", "properties": {"name": "Tesla Supercharger", "operator": "Tesla", "capacity": ""}, "geometry": {"type": "Point", "coordinates": [-79.072922, 43.846157]}}, {"type": "Feature", "properties": {"name": "Markham Supercharger", "operator": "Tesla", "capacity": ""}, "geometry": {"type": "Point", "coordinates": [-79.321711, 43.857521]}}, {"type": "Feature", "properties": {"name": "Tesla Supercharger", "operator": "Tesla", "capacity": ""}, "geometry": {"type": "Point", "coordinates": [-79.44858, 43.717994]}}, {"type": "Feature", "properties": {"name": "Tesla Supercharger", "operator": "Tesla", "capacity": ""}, "geometry": {"type": "Point", "coordinates": [-79.3831651, 43.655025]}}, {"type": "Feature", "properties": {"name": "Tesla Supercharger", "operator": "Tesla", "capacity": ""}, "geometry": {"type": "Point", "coordinates": [-79.4122645, 43.6325901]}}, {"type": "Feature", "properties": {"name": "Vaughan Supercharger", "operator": "Tesla", "capacity": ""}, "geometry": {"type": "Point", "coordinates": [-79.55604, 43.788225]}}, {"type": "Feature", "properties": {"name": "Tesla Supercharger", "operator": "Tesla", "capacity": ""}, "geometry": {"type": "Point", "coordinates": [-79.693855, 43.440969]}}, {"type": "Feature", "properties": {"name": "Tesla Supercharger", "operator": "Tesla", "capacity": ""}, "geometry": {"type": "Point", "coordinates": [-79.6882712, 43.5180645]}}, {"type": "Feature", "properties": {"name": "Tesla Supercharger", "operator": "Tesla", "capacity": ""}, "geometry": {"type": "Point", "coordinates": [-79.710209, 43.599626]}}, {"type": "Feature", "properties": {"name": "Tesla Supercharger", "operator": "Tesla", "capacity": ""}, "geometry": {"type": "Point", "coordinates": [-79.694614, 43.481903]}}, {"type": "Feature", "properties": {"name": "FLO", "operator": "FLO", "capacity": ""}, "geometry": {"type": "Point", "coordinates": [-79.4205852, 43.6437868]}}, {"type": "Feature", "properties": {"name": "", "operator": "Ivy", "capacity": ""}, "geometry": {"type": "Point", "coordinates": [-79.5334061, 43.7079761]}}, {"type": "Feature", "properties": {"name": "", "operator": "", "capacity": ""}, "geometry": {"type": "Point", "coordinates": [-79.6332283, 43.5681076]}}, {"type": "Feature", "properties": {"name": "", "operator": "", "capacity": ""}, "geometry": {"type": "Point", "coordinates": [-79.5114731, 43.76559]}}, {"type": "Feature", "properties": {"name": "FLO", "operator": "FLO", "capacity": "80"}, "geometry": {"type": "Point", "coordinates": [-79.3227871, 43.6838789]}}, {"type": "Feature", "properties": {"name": "", "operator": "", "capacity": ""}, "geometry": {"type": "Point", "coordinates": [-79.3265254, 43.6711883]}}, {"type": "Feature", "properties": {"name": "FLO", "operator": "FLO", "capacity": "4"}, "geometry": {"type": "Point", "coordinates": [-79.4488124, 43.6393353]}}]}